{
  "type": "FeatureCollection",
  "features": [
    {
      "type": "Feature",
      "properties": {
        "norad_id": 33924,
        "name": "COSMOS 2251 DEB",
        "group": "cosmos-2251-debris",
        "lat": -40.79214261741876,
        "lon": -115.66693044110099,
        "alt_km": 801.2780968278348,
        "timestamp": "2025-12-19T20:43:00.478850+00:00",
        "meta_object_name": "COSMOS 2251 DEB",
        "meta_object_id": "1993-036ED",
        "meta_epoch": "2025-12-19T04:54:50.147712",
        "meta_mean_motion": 13.50233639,
        "meta_eccentricity": 0.04039077,
        "meta_inclination": 73.9135,
        "meta_ra_of_asc_node": 259.8095,
        "meta_arg_of_pericenter": 294.1244,
        "meta_mean_anomaly": 61.8118,
        "meta_ephemeris_type": 0,
        "meta_classification_type": "U",
        "meta_norad_cat_id": 33924,
        "meta_element_set_no": 999,
        "meta_rev_at_epoch": 82826,
        "meta_bstar": 0.00042839453,
        "meta_mean_motion_dot": 4.3e-06,
        "meta_mean_motion_ddot": 0,
        "tle_line1": "1 33924U 93036ED  25353.20474708  .00000430  00000+0  42839-3 0  9997",
        "tle_line2": "2 33924  73.9135 259.8095 0403907 294.1244  61.8118 13.50233639828264"
      },
      "geometry": {
        "type": "Point",
        "coordinates": [
          -115.66693044110099,
          -40.79214261741876
        ]
      }
    },
    {
      "type": "Feature",
      "properties": {
        "norad_id": 33928,
        "name": "COSMOS 2251 DEB",
        "group": "cosmos-2251-debris",
        "lat": -17.566797734386014,
        "lon": -135.60861633261655,
        "alt_km": 768.8472741298001,
        "timestamp": "2025-12-19T20:43:00.478861+00:00",
        "meta_object_name": "COSMOS 2251 DEB",
        "meta_object_id": "1993-036EH",
        "meta_epoch": "2025-12-19T03:12:44.311680",
        "meta_mean_motion": 14.47415721,
        "meta_eccentricity": 0.00617856,
        "meta_inclination": 73.9256,
        "meta_ra_of_asc_node": 40.5266,
        "meta_arg_of_pericenter": 333.3041,
        "meta_mean_anomaly": 26.4939,
        "meta_ephemeris_type": 0,
        "meta_classification_type": "U",
        "meta_norad_cat_id": 33928,
        "meta_element_set_no": 999,
        "meta_rev_at_epoch": 88737,
        "meta_bstar": 0.00018752479,
        "meta_mean_motion_dot": 6.75e-06,
        "meta_mean_motion_ddot": 0,
        "tle_line1": "1 33928U 93036EH  25353.13384620  .00000675  00000+0  18752-3 0  9994",
        "tle_line2": "2 33928  73.9256  40.5266 0061785 333.3041  26.4939 14.47415721887378"
      },
      "geometry": {
        "type": "Point",
        "coordinates": [
          -135.60861633261655,
          -17.566797734386014
        ]
      }
    },
    {
      "type": "Feature",
      "properties": {
        "norad_id": 33932,
        "name": "COSMOS 2251 DEB",
        "group": "cosmos-2251-debris",
        "lat": 60.57386345857786,
        "lon": 92.27966428320971,
        "alt_km": 759.6657405722563,
        "timestamp": "2025-12-19T20:43:00.478872+00:00",
        "meta_object_name": "COSMOS 2251 DEB",
        "meta_object_id": "1993-036EM",
        "meta_epoch": "2025-12-19T05:10:04.532736",
        "meta_mean_motion": 14.38775822,
        "meta_eccentricity": 0.00356558,
        "meta_inclination": 74.0341,
        "meta_ra_of_asc_node": 303.9739,
        "meta_arg_of_pericenter": 18.5644,
        "meta_mean_anomaly": 341.6802,
        "meta_ephemeris_type": 0,
        "meta_classification_type": "U",
        "meta_norad_cat_id": 33932,
        "meta_element_set_no": 999,
        "meta_rev_at_epoch": 88091,
        "meta_bstar": 0.00034362287,
        "meta_mean_motion_dot": 1.037e-05,
        "meta_mean_motion_ddot": 0,
        "tle_line1": "1 33932U 93036EM  25353.21533024  .00001037  00000+0  34362-3 0  9990",
        "tle_line2": "2 33932  74.0341 303.9739 0035655  18.5644 341.6802 14.38775822880914"
      },
      "geometry": {
        "type": "Point",
        "coordinates": [
          92.27966428320971,
          60.57386345857786
        ]
      }
    },
    {
      "type": "Feature",
      "properties": {
        "norad_id": 33933,
        "name": "COSMOS 2251 DEB",
        "group": "cosmos-2251-debris",
        "lat": -8.182600711490604,
        "lon": -130.49502872548783,
        "alt_km": 819.3294918914653,
        "timestamp": "2025-12-19T20:43:00.478882+00:00",
        "meta_object_name": "COSMOS 2251 DEB",
        "meta_object_id": "1993-036EN",
        "meta_epoch": "2025-12-19T04:46:20.935488",
        "meta_mean_motion": 14.334983,
        "meta_eccentricity": 0.00708725,
        "meta_inclination": 74.0892,
        "meta_ra_of_asc_node": 48.3646,
        "meta_arg_of_pericenter": 54.8414,
        "meta_mean_anomaly": 305.9349,
        "meta_ephemeris_type": 0,
        "meta_classification_type": "U",
        "meta_norad_cat_id": 33933,
        "meta_element_set_no": 999,
        "meta_rev_at_epoch": 87877,
        "meta_bstar": 0.00019502436,
        "meta_mean_motion_dot": 5.29e-06,
        "meta_mean_motion_ddot": 0,
        "tle_line1": "1 33933U 93036EN  25353.19885342  .00000529  00000+0  19502-3 0  9995",
        "tle_line2": "2 33933  74.0892  48.3646 0070872  54.8414 305.9349 14.33498300878779"
      },
      "geometry": {
        "type": "Point",
        "coordinates": [
          -130.49502872548783,
          -8.182600711490604
        ]
      }
    },
    {
      "type": "Feature",
      "properties": {
        "norad_id": 33934,
        "name": "COSMOS 2251 DEB",
        "group": "cosmos-2251-debris",
        "lat": -57.765517204987106,
        "lon": -66.00668991461592,
        "alt_km": 693.2621658111111,
        "timestamp": "2025-12-19T20:43:00.478901+00:00",
        "meta_object_name": "COSMOS 2251 DEB",
        "meta_object_id": "1993-036EP",
        "meta_epoch": "2025-12-19T06:26:58.416288",
        "meta_mean_motion": 14.59159881,
        "meta_eccentricity": 0.0015422,
        "meta_inclination": 74.0383,
        "meta_ra_of_asc_node": 88.132,
        "meta_arg_of_pericenter": 211.8789,
        "meta_mean_anomaly": 148.1445,
        "meta_ephemeris_type": 0,
        "meta_classification_type": "U",
        "meta_norad_cat_id": 33934,
        "meta_element_set_no": 999,
        "meta_rev_at_epoch": 88834,
        "meta_bstar": 0.00060456713,
        "meta_mean_motion_dot": 2.825e-05,
        "meta_mean_motion_ddot": 0,
        "tle_line1": "1 33934U 93036EP  25353.26873167  .00002825  00000+0  60457-3 0  9992",
        "tle_line2": "2 33934  74.0383  88.1320 0015422 211.8789 148.1445 14.59159881888340"
      },
      "geometry": {
        "type": "Point",
        "coordinates": [
          -66.00668991461592,
          -57.765517204987106
        ]
      }
    },
    {
      "type": "Feature",
      "properties": {
        "norad_id": 33936,
        "name": "COSMOS 2251 DEB",
        "group": "cosmos-2251-debris",
        "lat": -18.51747104326253,
        "lon": -150.62181206601372,
        "alt_km": 679.0276782183828,
        "timestamp": "2025-12-19T20:43:00.478911+00:00",
        "meta_object_name": "COSMOS 2251 DEB",
        "meta_object_id": "1993-036ER",
        "meta_epoch": "2025-12-19T05:00:38.704320",
        "meta_mean_motion": 14.60308873,
        "meta_eccentricity": 0.0027106,
        "meta_inclination": 74.0181,
        "meta_ra_of_asc_node": 25.1201,
        "meta_arg_of_pericenter": 179.1007,
        "meta_mean_anomaly": 181.0212,
        "meta_ephemeris_type": 0,
        "meta_classification_type": "U",
        "meta_norad_cat_id": 33936,
        "meta_element_set_no": 999,
        "meta_rev_at_epoch": 88984,
        "meta_bstar": 0.00043936294,
        "meta_mean_motion_dot": 2.104e-05,
        "meta_mean_motion_ddot": 0,
        "tle_line1": "1 33936U 93036ER  25353.20878130  .00002104  00000+0  43936-3 0  9996",
        "tle_line2": "2 33936  74.0181  25.1201 0027106 179.1007 181.0212 14.60308873889841"
      },
      "geometry": {
        "type": "Point",
        "coordinates": [
          -150.62181206601372,
          -18.51747104326253
        ]
      }
    },
    {
      "type": "Feature",
      "properties": {
        "norad_id": 33938,
        "name": "COSMOS 2251 DEB",
        "group": "cosmos-2251-debris",
        "lat": 62.332880973705244,
        "lon": -133.04998105275578,
        "alt_km": 740.2083665778055,
        "timestamp": "2025-12-19T20:43:00.478922+00:00",
        "meta_object_name": "COSMOS 2251 DEB",
        "meta_object_id": "1993-036ET",
        "meta_epoch": "2025-12-19T01:12:58.629312",
        "meta_mean_motion": 14.46811558,
        "meta_eccentricity": 0.00168342,
        "meta_inclination": 74.0438,
        "meta_ra_of_asc_node": 195.3934,
        "meta_arg_of_pericenter": 276.9952,
        "meta_mean_anomaly": 239.7381,
        "meta_ephemeris_type": 0,
        "meta_classification_type": "U",
        "meta_norad_cat_id": 33938,
        "meta_element_set_no": 999,
        "meta_rev_at_epoch": 88491,
        "meta_bstar": 0.00032269434,
        "meta_mean_motion_dot": 1.144e-05,
        "meta_mean_motion_ddot": 0,
        "tle_line1": "1 33938U 93036ET  25353.05067858  .00001144  00000+0  32269-3 0  9998",
        "tle_line2": "2 33938  74.0438 195.3934 0016834 276.9952 239.7381 14.46811558884916"
      },
      "geometry": {
        "type": "Point",
        "coordinates": [
          -133.04998105275578,
          62.332880973705244
        ]
      }
    }
  ]
}